[{"OBJECT_NAME":"OBJECT C","OBJECT_ID":"2024-092C","EPOCH":"2026-03-09T23:10:26.961312","MEAN_MOTION":15.27308901,"ECCENTRICITY":0.00097974,"INCLINATION":97.6475,"RA_OF_ASC_NODE":197.1606,"ARG_OF_PERICENTER":169.1353,"MEAN_ANOMALY":191.0098,"EPHEMERIS_TYPE":0,"CLASSIFICATION_TYPE":"U","NORAD_CAT_ID":59775,"ELEMENT_SET_NO":999,"REV_AT_EPOCH":10042,"BSTAR":0.00057925748,"MEAN_MOTION_DOT":0.00015454,"MEAN_MOTION_DDOT":0},{"OBJECT_NAME":"STARLINK-31872","OBJECT_ID":"2024-106A","EPOCH":"2026-03-09T03:10:29.366112","MEAN_MOTION":15.27559083,"ECCENTRICITY":0.00022667,"INCLINATION":43.0037,"RA_OF_ASC_NODE":336.0083,"ARG_OF_PERICENTER":281.8013,"MEAN_ANOMALY":78.2584,"EPHEMERIS_TYPE":0,"CLASSIFICATION_TYPE":"U","NORAD_CAT_ID":59922,"ELEMENT_SET_NO":999,"REV_AT_EPOCH":10047,"BSTAR":2.7932143e-5,"MEAN_MOTION_DOT":5.06e-6,"MEAN_MOTION_DDOT":0}]
